KENT RIDGE 1            
1 41167U 15077B   26062.96978596  .00006215  00000+0  22880-3 0  9990
2 41167  14.9805 328.0772 0008417 196.0316 163.9740 15.22395577565038
GAOFEN-4                
1 41194U 15083A   26063.82822594 -.00000344  00000+0  00000+0 0  9993
2 41194   0.3808  83.8538 0003656  80.2575  42.2890  1.00269521 37485
JASON-3                 
1 41240U 16002A   26063.76962199 -.00000018  00000+0  17567-3 0  9994
2 41240  66.0449 345.3643 0007824 276.8258  83.1871 12.87628231473809
SENTINEL-3A             
1 41335U 16011A   26063.79312760  .00000180  00000+0  92203-4 0  9995
2 41335  98.6238 132.6510 0001232 100.2791 259.8529 14.26739773523177
ZIYUAN 3-02 (ZY 3-02)   
1 41556U 16033A   26063.87346153  .00008978  00000+0  40163-3 0  9996
2 41556  97.3910 141.6155 0011205 317.8284  42.2088 15.21470652542128
CARTOSAT-2C             
1 41599U 16040A   26063.86333326  .00004592  00000+0  22047-3 0  9997
2 41599  97.4616 125.2061 0010547 138.0676 222.1368 15.19305597537877
SKYSAT-C1               
1 41601U 16040C   26063.54907443  .00013270  00000+0  40037-3 0  9995
2 41601  96.9701 101.0001 0003928  63.5583 296.6063 15.34386901541812
LAPAN-A3                
1 41603U 16040E   26063.86620038  .00005694  00000+0  18449-3 0  9997
2 41603  97.1475  63.5062 0011585  38.7791 321.4281 15.32327167538831
GAOFEN-3                
1 41727U 16049A   26063.87840785 -.00000022  00000+0  66128-5 0  9997
2 41727  98.4046  73.2224 0001629  94.8582 265.2793 14.42214459503613
SKYSAT-C4               
1 41771U 16058B   26063.66916490  .00022127  00000+0  46776-3 0  9994
2 41771  96.9290  90.0006 0000865  91.3597 268.7752 15.45165190529319
SKYSAT-C5               
1 41772U 16058C   26063.54260623  .00013001  00000+0  39509-3 0  9999
2 41772  97.0620 108.8291 0001864  85.2729 274.8727 15.34172728527706
SKYSAT-C2               
1 41773U 16058D   26063.05382248  .00017629  00000+0  45017-3 0  9995
2 41773  97.0280  89.2282 0005284  81.1583 279.0262 15.39520258528863
SKYSAT-C3               
1 41774U 16058E   26063.06410134  .00030426  00000+0  58203-3 0  9994
2 41774  96.9182  98.1747 0001528 100.8480 259.2944 15.48020744529829
ALSAT-1B                
1 41785U 16059C   26063.84549468  .00000244  00000+0  46116-4 0  9992
2 41785  97.7799  77.0977 0008731 193.2950 166.8029 14.72180071505227
PATHFINDER 1            
1 41787U 16059E   26063.75312371  .00001094  00000+0  20003-3 0  9995
2 41787  97.8176  67.7513 0028522 176.3878 183.7539 14.67508065504394
SCATSAT 1               
1 41790U 16059H   26063.17477044  .00002065  00000+0  27873-3 0  9995
2 41790  98.1314 125.8229 0054067 225.5115 134.1670 14.79242667 86061
GOKTURK 1A              
1 41875U 16073A   26063.86133726  .00000267  00000+0  61610-4 0  9997
2 41875  98.1378 320.1055 0001358  77.5382 282.5972 14.62742521493575
