[{"OBJECT_NAME":"KENT RIDGE 1","OBJECT_ID":"2015-077B","EPOCH":"2026-03-03T23:16:29.506944","MEAN_MOTION":15.22395577,"ECCENTRICITY":0.0008417,"INCLINATION":14.9805,"RA_OF_ASC_NODE":328.0772,"ARG_OF_PERICENTER":196.0316,"MEAN_ANOMALY":163.974,"EPHEMERIS_TYPE":0,"CLASSIFICATION_TYPE":"U","NORAD_CAT_ID":41167,"ELEMENT_SET_NO":999,"REV_AT_EPOCH":56503,"BSTAR":0.00022879847,"MEAN_MOTION_DOT":6.215e-5,"MEAN_MOTION_DDOT":0},{"OBJECT_NAME":"GAOFEN-4","OBJECT_ID":"2015-083A","EPOCH":"2026-03-04T19:52:38.721216","MEAN_MOTION":1.00269521,"ECCENTRICITY":0.0003656,"INCLINATION":0.3808,"RA_OF_ASC_NODE":83.8538,"ARG_OF_PERICENTER":80.2575,"MEAN_ANOMALY":42.289,"EPHEMERIS_TYPE":0,"CLASSIFICATION_TYPE":"U","NORAD_CAT_ID":41194,"ELEMENT_SET_NO":999,"REV_AT_EPOCH":3748,"BSTAR":0,"MEAN_MOTION_DOT":-3.44e-6,"MEAN_MOTION_DDOT":0},{"OBJECT_NAME":"JASON-3","OBJECT_ID":"2016-002A","EPOCH":"2026-03-04T18:28:15.339936","MEAN_MOTION":12.87628231,"ECCENTRICITY":0.0007824,"INCLINATION":66.0449,"RA_OF_ASC_NODE":345.3643,"ARG_OF_PERICENTER":276.8258,"MEAN_ANOMALY":83.1871,"EPHEMERIS_TYPE":0,"CLASSIFICATION_TYPE":"U","NORAD_CAT_ID":41240,"ELEMENT_SET_NO":999,"REV_AT_EPOCH":47380,"BSTAR":0.00017567,"MEAN_MOTION_DOT":-1.8e-7,"MEAN_MOTION_DDOT":0},{"OBJECT_NAME":"SENTINEL-3A","OBJECT_ID":"2016-011A","EPOCH":"2026-03-04T19:02:06.224640","MEAN_MOTION":14.26739773,"ECCENTRICITY":0.0001232,"INCLINATION":98.6238,"RA_OF_ASC_NODE":132.651,"ARG_OF_PERICENTER":100.2791,"MEAN_ANOMALY":259.8529,"EPHEMERIS_TYPE":0,"CLASSIFICATION_TYPE":"U","NORAD_CAT_ID":41335,"ELEMENT_SET_NO":999,"REV_AT_EPOCH":52317,"BSTAR":9.2203e-5,"MEAN_MOTION_DOT":1.8e-6,"MEAN_MOTION_DDOT":0},{"OBJECT_NAME":"ZIYUAN 3-02 (ZY 3-02)","OBJECT_ID":"2016-033A","EPOCH":"2026-03-04T20:57:47.076192","MEAN_MOTION":15.21470652,"ECCENTRICITY":0.0011205,"INCLINATION":97.391,"RA_OF_ASC_NODE":141.6155,"ARG_OF_PERICENTER":317.8284,"MEAN_ANOMALY":42.2088,"EPHEMERIS_TYPE":0,"CLASSIFICATION_TYPE":"U","NORAD_CAT_ID":41556,"ELEMENT_SET_NO":999,"REV_AT_EPOCH":54212,"BSTAR":0.00040163,"MEAN_MOTION_DOT":8.978e-5,"MEAN_MOTION_DDOT":0},{"OBJECT_NAME":"CARTOSAT-2C","OBJECT_ID":"2016-040A","EPOCH":"2026-03-04T20:43:11.993664","MEAN_MOTION":15.19305597,"ECCENTRICITY":0.0010547,"INCLINATION":97.4616,"RA_OF_ASC_NODE":125.2061,"ARG_OF_PERICENTER":138.0676,"MEAN_ANOMALY":222.1368,"EPHEMERIS_TYPE":0,"CLASSIFICATION_TYPE":"U","NORAD_CAT_ID":41599,"ELEMENT_SET_NO":999,"REV_AT_EPOCH":53787,"BSTAR":0.00022047,"MEAN_MOTION_DOT":4.592e-5,"MEAN_MOTION_DDOT":0},{"OBJECT_NAME":"SKYSAT-C1","OBJECT_ID":"2016-040C","EPOCH":"2026-03-04T13:10:40.030752","MEAN_MOTION":15.34386901,"ECCENTRICITY":0.0003928,"INCLINATION":96.9701,"RA_OF_ASC_NODE":101.0001,"ARG_OF_PERICENTER":63.5583,"MEAN_ANOMALY":296.6063,"EPHEMERIS_TYPE":0,"CLASSIFICATION_TYPE":"U","NORAD_CAT_ID":41601,"ELEMENT_SET_NO":999,"REV_AT_EPOCH":54181,"BSTAR":0.00040037,"MEAN_MOTION_DOT":0.0001327,"MEAN_MOTION_DDOT":0},{"OBJECT_NAME":"LAPAN-A3","OBJECT_ID":"2016-040E","EPOCH":"2026-03-04T20:47:19.712832","MEAN_MOTION":15.32327167,"ECCENTRICITY":0.0011585,"INCLINATION":97.1475,"RA_OF_ASC_NODE":63.5062,"ARG_OF_PERICENTER":38.7791,"MEAN_ANOMALY":321.4281,"EPHEMERIS_TYPE":0,"CLASSIFICATION_TYPE":"U","NORAD_CAT_ID":41603,"ELEMENT_SET_NO":999,"REV_AT_EPOCH":53883,"BSTAR":0.00018449,"MEAN_MOTION_DOT":5.694e-5,"MEAN_MOTION_DDOT":0},{"OBJECT_NAME":"GAOFEN-3","OBJECT_ID":"2016-049A","EPOCH":"2026-03-04T21:04:54.438240","MEAN_MOTION":14.42214459,"ECCENTRICITY":0.0001629,"INCLINATION":98.4046,"RA_OF_ASC_NODE":73.2224,"ARG_OF_PERICENTER":94.8582,"MEAN_ANOMALY":265.2793,"EPHEMERIS_TYPE":0,"CLASSIFICATION_TYPE":"U","NORAD_CAT_ID":41727,"ELEMENT_SET_NO":999,"REV_AT_EPOCH":50361,"BSTAR":6.6128e-6,"MEAN_MOTION_DOT":-2.2e-7,"MEAN_MOTION_DDOT":0},{"OBJECT_NAME":"SKYSAT-C4","OBJECT_ID":"2016-058B","EPOCH":"2026-03-04T16:03:35.847360","MEAN_MOTION":15.4516519,"ECCENTRICITY":8.65e-5,"INCLINATION":96.929,"RA_OF_ASC_NODE":90.0006,"ARG_OF_PERICENTER":91.3597,"MEAN_ANOMALY":268.7752,"EPHEMERIS_TYPE":0,"CLASSIFICATION_TYPE":"U","NORAD_CAT_ID":41771,"ELEMENT_SET_NO":999,"REV_AT_EPOCH":52931,"BSTAR":0.00046776,"MEAN_MOTION_DOT":0.00022127,"MEAN_MOTION_DDOT":0},{"OBJECT_NAME":"SKYSAT-C5","OBJECT_ID":"2016-058C","EPOCH":"2026-03-04T13:01:21.178272","MEAN_MOTION":15.34172728,"ECCENTRICITY":0.0001864,"INCLINATION":97.062,"RA_OF_ASC_NODE":108.8291,"ARG_OF_PERICENTER":85.2729,"MEAN_ANOMALY":274.8727,"EPHEMERIS_TYPE":0,"CLASSIFICATION_TYPE":"U","NORAD_CAT_ID":41772,"ELEMENT_SET_NO":999,"REV_AT_EPOCH":52770,"BSTAR":0.00039509,"MEAN_MOTION_DOT":0.00013001,"MEAN_MOTION_DDOT":0},{"OBJECT_NAME":"SKYSAT-C2","OBJECT_ID":"2016-058D","EPOCH":"2026-03-04T01:17:30.262272","MEAN_MOTION":15.39520258,"ECCENTRICITY":0.00052845,"INCLINATION":97.028,"RA_OF_ASC_NODE":89.2282,"ARG_OF_PERICENTER":81.1583,"MEAN_ANOMALY":279.0262,"EPHEMERIS_TYPE":0,"CLASSIFICATION_TYPE":"U","NORAD_CAT_ID":41773,"ELEMENT_SET_NO":999,"REV_AT_EPOCH":52886,"BSTAR":0.00045017291,"MEAN_MOTION_DOT":0.00017629,"MEAN_MOTION_DDOT":0},{"OBJECT_NAME":"SKYSAT-C3","OBJECT_ID":"2016-058E","EPOCH":"2026-03-04T01:32:18.355776","MEAN_MOTION":15.48020744,"ECCENTRICITY":0.00015282,"INCLINATION":96.9182,"RA_OF_ASC_NODE":98.1747,"ARG_OF_PERICENTER":100.848,"MEAN_ANOMALY":259.2944,"EPHEMERIS_TYPE":0,"CLASSIFICATION_TYPE":"U","NORAD_CAT_ID":41774,"ELEMENT_SET_NO":999,"REV_AT_EPOCH":52982,"BSTAR":0.00058203259,"MEAN_MOTION_DOT":0.00030426,"MEAN_MOTION_DDOT":0},{"OBJECT_NAME":"ALSAT-1B","OBJECT_ID":"2016-059C","EPOCH":"2026-03-04T20:17:30.740352","MEAN_MOTION":14.72180071,"ECCENTRICITY":0.0008731,"INCLINATION":97.7799,"RA_OF_ASC_NODE":77.0977,"ARG_OF_PERICENTER":193.295,"MEAN_ANOMALY":166.8029,"EPHEMERIS_TYPE":0,"CLASSIFICATION_TYPE":"U","NORAD_CAT_ID":41785,"ELEMENT_SET_NO":999,"REV_AT_EPOCH":50522,"BSTAR":4.6116e-5,"MEAN_MOTION_DOT":2.44e-6,"MEAN_MOTION_DDOT":0},{"OBJECT_NAME":"PATHFINDER 1","OBJECT_ID":"2016-059E","EPOCH":"2026-03-04T18:04:29.888544","MEAN_MOTION":14.67508065,"ECCENTRICITY":0.0028522,"INCLINATION":97.8176,"RA_OF_ASC_NODE":67.7513,"ARG_OF_PERICENTER":176.3878,"MEAN_ANOMALY":183.7539,"EPHEMERIS_TYPE":0,"CLASSIFICATION_TYPE":"U","NORAD_CAT_ID":41787,"ELEMENT_SET_NO":999,"REV_AT_EPOCH":50439,"BSTAR":0.00020003,"MEAN_MOTION_DOT":1.094e-5,"MEAN_MOTION_DDOT":0},{"OBJECT_NAME":"SCATSAT 1","OBJECT_ID":"2016-059H","EPOCH":"2026-03-04T04:11:40.166016","MEAN_MOTION":14.79242667,"ECCENTRICITY":0.00540678,"INCLINATION":98.1314,"RA_OF_ASC_NODE":125.8229,"ARG_OF_PERICENTER":225.5115,"MEAN_ANOMALY":134.167,"EPHEMERIS_TYPE":0,"CLASSIFICATION_TYPE":"U","NORAD_CAT_ID":41790,"ELEMENT_SET_NO":999,"REV_AT_EPOCH":8606,"BSTAR":0.00027873434,"MEAN_MOTION_DOT":2.065e-5,"MEAN_MOTION_DDOT":0},{"OBJECT_NAME":"GOKTURK 1A","OBJECT_ID":"2016-073A","EPOCH":"2026-03-04T20:40:19.539264","MEAN_MOTION":14.62742521,"ECCENTRICITY":0.0001358,"INCLINATION":98.1378,"RA_OF_ASC_NODE":320.1055,"ARG_OF_PERICENTER":77.5382,"MEAN_ANOMALY":282.5972,"EPHEMERIS_TYPE":0,"CLASSIFICATION_TYPE":"U","NORAD_CAT_ID":41875,"ELEMENT_SET_NO":999,"REV_AT_EPOCH":49357,"BSTAR":6.161e-5,"MEAN_MOTION_DOT":2.67e-6,"MEAN_MOTION_DDOT":0}]
